[{"OBJECT_NAME":"STARLINK-31566","OBJECT_ID":"2024-068W","EPOCH":"2026-03-09T07:03:01.801440","MEAN_MOTION":15.27575715,"ECCENTRICITY":9.159e-5,"INCLINATION":43.004,"RA_OF_ASC_NODE":36.6226,"ARG_OF_PERICENTER":268.5979,"MEAN_ANOMALY":91.4768,"EPHEMERIS_TYPE":0,"CLASSIFICATION_TYPE":"U","NORAD_CAT_ID":59475,"ELEMENT_SET_NO":999,"REV_AT_EPOCH":10846,"BSTAR":-1.8371019e-5,"MEAN_MOTION_DOT":-7.67e-6,"MEAN_MOTION_DDOT":0},{"OBJECT_NAME":"SL-3 R\/B","OBJECT_ID":"1982-027B","EPOCH":"2026-03-09T22:44:40.208640","MEAN_MOTION":15.28335844,"ECCENTRICITY":0.00065199,"INCLINATION":81.188,"RA_OF_ASC_NODE":37.4466,"ARG_OF_PERICENTER":276.581,"MEAN_ANOMALY":83.4683,"EPHEMERIS_TYPE":0,"CLASSIFICATION_TYPE":"U","NORAD_CAT_ID":13121,"ELEMENT_SET_NO":999,"REV_AT_EPOCH":39859,"BSTAR":0.00030526741,"MEAN_MOTION_DOT":8.453e-5,"MEAN_MOTION_DDOT":0}]
